NORAD_CAT_ID,OBJECT_NAME,OBJECT_TYPE,EPOCH,MEAN_MOTION,ECCENTRICITY,INCLINATION,RA_OF_ASC_NODE,ARG_OF_PERICENTER,MEAN_ANOMALY,BSTAR,MEAN_MOTION_DOT,MEAN_MOTION_DDOT,TLE_LINE0,TLE_LINE1,TLE_LINE2,SEMIMAJOR_AXIS,PERIOD,APOGEE,PERIGEE,DECAYED
55418.0,STARLINK-5030,PAYLOAD,2024-05-09 21:35:34,14.98338638,0.000284,69.9996,330.7233,263.697,96.3865,4.5434e-06,-3.9e-07,0.0,0 STARLINK-5030,1 55418U 23014AD  24130.89970906 -.00000039  00000-0  45434-5 0  9999,2 55418  69.9996 330.7233 0002840 263.6970  96.3865 14.98338638 71380,6950.166,96.106,574.005,570.057,0.0
55418.0,STARLINK-5030,PAYLOAD,2024-05-09 23:11:42,14.98340642,0.0002946,69.9996,330.5553,268.5383,91.5439,1.3899e-05,7.3e-07,0.0,0 STARLINK-5030,1 55418U 23014AD  24130.96646762  .00000073  00000-0  13899-4 0  9993,2 55418  69.9996 330.5553 0002946 268.5383  91.5439 14.98340642 70451,6950.16,96.106,574.072,569.977,0.0
55418.0,STARLINK-5030,PAYLOAD,2024-05-10 07:12:23,14.98332965,0.0002945,69.9997,329.7132,261.7903,98.2922,4.0989e-05,3.96e-06,0.0,0 STARLINK-5030,1 55418U 23014AD  24131.30027173  .00000396  00000-0  40989-4 0  9999,2 55418  69.9997 329.7132 0002945 261.7903  98.2922 14.98332965 70503,6950.184,96.107,574.096,570.002,0.0
55418.0,STARLINK-5030,PAYLOAD,2024-05-10 13:36:56,14.98321367,0.000292,69.9997,329.0399,265.8561,94.2264,0.00027455,3.184e-05,0.0,0 STARLINK-5030,1 55418U 23014AD  24131.56731667  .00003184  00000-0  27455-3 0  9997,2 55418  69.9997 329.0399 0002920 265.8561  94.2264 14.98321367 71486,6950.22,96.108,574.114,570.055,0.0
55418.0,STARLINK-5030,PAYLOAD,2024-05-10 21:37:36,14.98328595,0.0003176,69.9996,328.199,274.1899,85.8897,0.00021384,2.459e-05,0.0,0 STARLINK-5030,1 55418U 23014AD  24131.90111441  .00002459  00000-0  21384-3 0  9996,2 55418  69.9996 328.1990 0003176 274.1899  85.8897 14.98328595 71537,6950.197,96.107,574.27,569.855,0.0
55418.0,STARLINK-5030,PAYLOAD,2024-05-11 12:02:49,14.98331635,0.0002696,70.002,326.6868,267.3814,92.7036,0.00017007,1.937e-05,0.0,0 STARLINK-5030,1 55418U 23014AD  24132.50195606  .00001937  00000-0  17007-3 0  9995,2 55418  70.0020 326.6868 0002696 267.3814  92.7036 14.98331635 70688,6950.188,96.107,573.927,570.179,0.0
55418.0,STARLINK-5030,PAYLOAD,2024-05-11 20:03:28,14.98343085,0.0002176,70.0026,325.8438,256.6749,103.4168,0.00034219,3.994e-05,0.0,0 STARLINK-5030,1 55418U 23014AD  24132.83575079  .00003994  00000-0  34219-3 0  9996,2 55418  70.0026 325.8438 0002176 256.6749 103.4168 14.98343085 70733,6950.152,96.106,573.53,570.505,0.0
55418.0,STARLINK-5030,PAYLOAD,2024-05-11 21:39:36,14.9834692,0.0001952,70.0033,325.6756,259.0109,101.0831,0.00048997,5.76e-05,0.0,0 STARLINK-5030,1 55418U 23014AD  24132.90251041  .00005760  00000-0  48997-3 0  9995,2 55418  70.0033 325.6756 0001952 259.0109 101.0831 14.98346920 71687,6950.141,96.106,573.362,570.649,0.0
55418.0,STARLINK-5030,PAYLOAD,2024-05-12 12:04:51,14.98290555,0.0001863,70.001,324.1586,290.8772,69.2187,-0.00081978,-9.85e-05,0.0,0 STARLINK-5030,1 55418U 23014AD  24133.50337905 -.00009850  00000-0 -81978-3 0  9998,2 55418  70.0010 324.1586 0001863 290.8772  69.2187 14.98290555 70834,6950.315,96.11,573.475,570.885,0.0
55418.0,STARLINK-5030,PAYLOAD,2024-05-12 13:41:00,14.98259051,0.0003348,70.0009,323.9903,273.4133,86.6643,-0.001725,-0.00020578,0.0,0 STARLINK-5030,1 55418U 23014AD  24133.57014756 -.00020578  00000-0 -17250-2 0  9992,2 55418  70.0009 323.9903 0003348 273.4133  86.6643 14.98259051 71781,6950.412,96.112,574.604,569.95,0.0
55418.0,STARLINK-5030,PAYLOAD,2024-05-12 20:05:32,14.98304757,0.0003057,70.0013,323.3178,271.707,88.3739,0.00026401,3.056e-05,0.0,0 STARLINK-5030,1 55418U 23014AD  24133.83718084  .00003056  00000-0  26401-3 0  9995,2 55418  70.0013 323.3178 0003057 271.7070  88.3739 14.98304757 70881,6950.271,96.109,574.261,570.011,0.0
55418.0,STARLINK-5030,PAYLOAD,2024-05-12 21:41:40,14.98307798,0.000309,70.0013,323.1492,273.0366,87.044,0.00044651,5.236e-05,0.0,0 STARLINK-5030,1 55418U 23014AD  24133.90394170  .00005236  00000-0  44651-3 0  9998,2 55418  70.0013 323.1492 0003090 273.0366  87.0440 14.98307798 71837,6950.262,96.108,574.274,569.979,0.0
55418.0,STARLINK-5030,PAYLOAD,2024-05-13 12:06:53,14.98322667,0.0003242,70.0013,321.6332,271.3803,88.6985,0.0011036,0.00013097,0.0,0 STARLINK-5030,1 55418U 23014AD  24134.50478729  .00013097  00000-0  11036-2 0  9992,2 55418  70.0013 321.6332 0003242 271.3803  88.6985 14.98322667 70987,6950.216,96.107,574.334,569.827,0.0
55418.0,STARLINK-5030,PAYLOAD,2024-05-13 18:31:25,14.98330843,0.0003305,70.0016,320.9603,270.1367,89.9413,0.0013079,0.00015548,0.0,0 STARLINK-5030,1 55418U 23014AD  24134.77182707  .00015548  00000-0  13079-2 0  9991,2 55418  70.0016 320.9603 0003305 270.1367  89.9413 14.98330843 71969,6950.19,96.107,574.352,569.758,0.0
55418.0,STARLINK-5030,PAYLOAD,2024-05-14 05:44:21,14.9834543,0.0003227,70.0012,319.7818,268.043,92.0359,0.00081639,9.665e-05,0.0,0 STARLINK-5030,1 55418U 23014AD  24135.23914120  .00009665  00000-0  81639-3 0  9996,2 55418  70.0012 319.7818 0003227 268.0430  92.0359 14.98345430 72030,6950.145,96.106,574.253,569.767,0.0
55418.0,STARLINK-5030,PAYLOAD,2024-05-14 21:45:41,14.98359837,0.0003306,70.0016,318.0986,268.8727,91.2053,0.00072004,8.516e-05,0.0,0 STARLINK-5030,1 55418U 23014AD  24135.90672875  .00008516  00000-0  72004-3 0  9998,2 55418  70.0016 318.0986 0003306 268.8727  91.2053 14.98359837 72136,6950.101,96.105,574.263,569.668,0.0
55418.0,STARLINK-5030,PAYLOAD,2024-05-15 12:10:53,14.98352741,0.0003109,69.9997,316.5832,268.1691,91.9112,0.00019855,2.278e-05,0.0,0 STARLINK-5030,1 55418U 23014AD  24136.50756188  .00002278  00000-0  19855-3 0  9999,2 55418  69.9997 316.5832 0003109 268.1691  91.9112 14.98352741 71283,6950.123,96.106,574.148,569.827,0.0
55418.0,STARLINK-5030,PAYLOAD,2024-05-15 13:47:01,14.98352591,0.0003096,69.9995,316.4148,268.1172,91.9632,0.00020595,2.367e-05,0.0,0 STARLINK-5030,1 55418U 23014AD  24136.57432129  .00002367  00000-0  20595-3 0  9994,2 55418  69.9995 316.4148 0003096 268.1172  91.9632 14.98352591 72235,6950.123,96.106,574.14,569.836,0.0
55418.0,STARLINK-5030,PAYLOAD,2024-05-15 21:47:41,14.9835672,0.0003097,70.0008,315.5735,268.0879,91.9925,0.00024966,2.889e-05,0.0,0 STARLINK-5030,1 55418U 23014AD  24136.90811464  .00002889  00000-0  24966-3 0  9999,2 55418  70.0008 315.5735 0003097 268.0879  91.9925 14.98356720 72287,6950.11,96.105,574.128,569.823,0.0
55418.0,STARLINK-5030,PAYLOAD,2024-05-16 12:12:53,14.98357255,0.0002632,70.002,314.0595,277.2056,82.8804,-0.00035712,-4.354e-05,0.0,0 STARLINK-5030,1 55418U 23014AD  24137.50894799 -.00004354  00000-0 -35712-3 0  9990,2 55418  70.0020 314.0595 0002632 277.2056  82.8804 14.98357255 71437,6950.109,96.105,573.803,570.144,0.0
55418.0,STARLINK-5030,PAYLOAD,2024-05-16 21:49:41,14.98352937,0.000295,70.0017,313.0485,267.4975,92.5846,-0.00011723,-1.492e-05,0.0,0 STARLINK-5030,1 55418U 23014AD  24137.90950445 -.00001492  00000-0 -11723-3 0  9991,2 55418  70.0017 313.0485 0002950 267.4975  92.5846 14.98352937 72431,6950.122,96.106,574.037,569.937,0.0
55418.0,STARLINK-5030,PAYLOAD,2024-05-17 12:14:54,14.98335439,0.0002767,70.0021,311.5336,271.2026,88.8816,-6.0664e-05,-8.17e-06,0.0,0 STARLINK-5030,1 55418U 23014AD  24138.51034989 -.00000817  00000-0 -60664-4 0  9994,2 55418  70.0021 311.5336 0002767 271.2026  88.8816 14.98335439 71588,6950.176,96.107,573.964,570.118,0.0
55418.0,STARLINK-5030,PAYLOAD,2024-05-17 21:51:42,14.98334745,0.0002518,70.0014,310.5236,268.2094,91.8777,3.2555e-05,2.96e-06,0.0,0 STARLINK-5030,1 55418U 23014AD  24138.91091180  .00000296  00000-0  32555-4 0  9991,2 55418  70.0014 310.5236 0002518 268.2094  91.8777 14.98334745 72583,6950.178,96.107,573.793,570.293,0.0
55418.0,STARLINK-5030,PAYLOAD,2024-05-18 04:16:14,14.98352689,0.0002682,70.0015,309.8503,272.8641,87.2212,-0.0002422,-2.983e-05,0.0,0 STARLINK-5030,1 55418U 23014AD  24139.17794225 -.00002983  00000-0 -24220-3 0  9996,2 55418  70.0015 309.8503 0002682 272.8641  87.2212 14.98352689 71683,6950.123,96.106,573.852,570.124,0.0
55418.0,STARLINK-5030,PAYLOAD,2024-05-18 12:16:54,14.98341423,0.0002628,70.0003,309.0086,270.2381,89.8477,5.1132e-05,5.17e-06,0.0,0 STARLINK-5030,1 55418U 23014AD  24139.51174355  .00000517  00000-0  51132-4 0  9992,2 55418  70.0003 309.0086 0002628 270.2381  89.8477 14.98341423 71732,6950.158,96.106,573.849,570.196,0.0
55418.0,STARLINK-5030,PAYLOAD,2024-05-18 13:53:02,14.98341068,0.0002637,70.0001,308.8402,270.0744,90.0113,4.5834e-05,4.54e-06,0.0,0 STARLINK-5030,1 55418U 23014AD  24139.57850333  .00000454  00000-0  45834-4 0  9997,2 55418  70.0001 308.8402 0002637 270.0744  90.0113 14.98341068 72681,6950.159,96.106,573.856,570.191,0.0
55418.0,STARLINK-5030,PAYLOAD,2024-05-18 20:17:34,14.98344327,0.0002624,70.0002,308.1672,269.2773,90.8085,6.4649e-05,6.79e-06,0.0,0 STARLINK-5030,1 55418U 23014AD  24139.84553866  .00000679  00000-0  64649-4 0  9992,2 55418  70.0002 308.1672 0002624 269.2773  90.8085 14.98344327 72724,6950.149,96.106,573.837,570.19,0.0
55418.0,STARLINK-5030,PAYLOAD,2024-05-19 13:55:05,14.98313512,0.0003023,69.9997,306.3157,266.8277,93.2536,-0.00012718,-1.609e-05,0.0,0 STARLINK-5030,1 55418U 23014AD  24140.57992261 -.00001609  00000-0 -12718-3 0  9995,2 55418  69.9997 306.3157 0003023 266.8277  93.2536 14.98313512 72830,6950.244,96.108,574.21,570.008,0.0
55418.0,STARLINK-5030,PAYLOAD,2024-05-19 20:19:37,14.98323527,0.000297,69.9995,305.6426,266.1136,93.9683,4.7211e-06,-3.7e-07,0.0,0 STARLINK-5030,1 55418U 23014AD  24140.84695617 -.00000037  00000-0  47211-5 0  9991,2 55418  69.9995 305.6426 0002970 266.1136  93.9683 14.98323527 71933,6950.213,96.107,574.142,570.014,0.0
55418.0,STARLINK-5030,PAYLOAD,2024-05-20 12:20:57,14.98333418,0.0003088,70.0007,303.9595,265.0829,94.9978,0.00016078,1.826e-05,0.0,0 STARLINK-5030,1 55418U 23014AD  24141.51454927  .00001826  00000-0  16078-3 0  9994,2 55418  70.0007 303.9595 0003088 265.0829  94.9978 14.98333418 72036,6950.182,96.107,574.194,569.901,0.0
